NORAD_CAT_ID,OBJECT_NAME,OBJECT_TYPE,EPOCH,MEAN_MOTION,ECCENTRICITY,INCLINATION,RA_OF_ASC_NODE,ARG_OF_PERICENTER,MEAN_ANOMALY,BSTAR,MEAN_MOTION_DOT,MEAN_MOTION_DDOT,TLE_LINE0,TLE_LINE1,TLE_LINE2,SEMIMAJOR_AXIS,PERIOD,APOGEE,PERIGEE,DECAYED
51148.0,STARLINK-3359,PAYLOAD,2022-09-27 04:33:42,15.08849863,0.000169,53.2164,203.2348,53.3731,306.7416,0.00065016,0.00010077,0.0,0 STARLINK-3359,1 51148U 22005AW  22270.19007877  .00010077  00000-0  65016-3 0  9996,2 51148  53.2164 203.2348 0001690  53.3731 306.7416 15.08849863 39564,6917.85,95.437,540.884,538.5459999999998,0.0
51148.0,STARLINK-3359,PAYLOAD,2022-09-27 12:30:38,15.08861266,0.0001698,53.2164,201.7478,54.4946,305.6205,0.0010883,0.00017085,0.0,0 STARLINK-3359,1 51148U 22005AW  22270.52127583  .00017085  00000-0  10883-2 0  9997,2 51148  53.2164 201.7478 0001698  54.4946 305.6205 15.08861266 38507,6917.815,95.436,540.855,538.506,0.0
51148.0,STARLINK-3359,PAYLOAD,2022-09-27 20:27:33,15.08853952,0.00016,53.216,200.2616,54.1722,305.9418,0.00037706,5.720000000000002e-05,0.0,0 STARLINK-3359,1 51148U 22005AW  22270.85247334  .00005720  00000-0  37706-3 0  9997,2 51148  53.2160 200.2616 0001600  54.1722 305.9418 15.08853952 38550,6917.8380000000025,95.437,540.81,538.596,0.0
51148.0,STARLINK-3359,PAYLOAD,2022-09-28 07:35:14,15.08868203,0.0001618,53.216,198.1795,53.6269,306.4873,0.0006171,9.554e-05,0.0,0 STARLINK-3359,1 51148U 22005AW  22271.31614524  .00009554  00000-0  61710-3 0  9999,2 51148  53.2160 198.1795 0001618  53.6269 306.4873 15.08868203 39739,6917.794,95.436,540.778,538.54,0.0
51148.0,STARLINK-3359,PAYLOAD,2022-09-28 18:42:57,15.08844517,0.0001431999999999,53.2158,196.0982,54.0402,306.0722,-0.00011318,-2.089e-05,0.0,0 STARLINK-3359,1 51148U 22005AW  22271.77982718 -.00002089  00000-0 -11318-3 0  9999,2 51148  53.2158 196.0982 0001432  54.0402 306.0722 15.08844517 39808,6917.8669999999975,95.437,540.722,538.741,0.0
51148.0,STARLINK-3359,PAYLOAD,2022-09-29 13:47:34,15.08834779,0.0001529,53.2155,192.5298,52.7707,307.3425,7.2496e-05,8.66e-06,0.0,0 STARLINK-3359,1 51148U 22005AW  22272.57470920  .00000866  00000-0  72496-4 0  9999,2 51148  53.2155 192.5298 0001529  52.7707 307.3425 15.08834779 38819,6917.896,95.438,540.819,538.7040000000002,0.0
51148.0,STARLINK-3359,PAYLOAD,2022-09-29 20:09:07,15.08842832,0.0001588,53.2156,191.3402,53.6555,306.4584,0.00024345,3.589e-05,0.0,0 STARLINK-3359,1 51148U 22005AW  22272.83966874  .00003589  00000-0  24345-3 0  9990,2 51148  53.2156 191.3402 0001588  53.6555 306.4584 15.08842832 38859,6917.871999999999,95.437,540.835,538.638,0.0
51148.0,STARLINK-3359,PAYLOAD,2022-09-30 00:55:16,15.0884706,0.0001579,53.2154,190.4483,53.4617,306.652,0.00063979,9.911e-05,0.0,0 STARLINK-3359,1 51148U 22005AW  22273.03838887  .00009911  00000-0  63979-3 0  9996,2 51148  53.2154 190.4483 0001579  53.4617 306.6520 15.08847060 39999,6917.859,95.437,540.816,538.631,0.0
51148.0,STARLINK-3359,PAYLOAD,2022-09-30 12:02:58,15.08844981,0.0001653,53.2154,188.3667,53.8907,306.2237,0.00041089,6.258e-05,0.0,0 STARLINK-3359,1 51148U 22005AW  22273.50206992  .00006258  00000-0  41089-3 0  9993,2 51148  53.2154 188.3667 0001653  53.8907 306.2237 15.08844981 38953,6917.865,95.437,540.874,538.587,0.0
51148.0,STARLINK-3359,PAYLOAD,2022-09-30 18:24:31,15.08841858,0.0001643,53.2157,187.1771,54.96,305.1546,0.00014051,1.949e-05,0.0,0 STARLINK-3359,1 51148U 22005AW  22273.76703019  .00001949  00000-0  14051-3 0  9994,2 51148  53.2157 187.1771 0001643  54.9600 305.1546 15.08841858 38995,6917.875,95.437,540.876,538.6030000000002,0.0
51148.0,STARLINK-3359,PAYLOAD,2022-10-01 00:46:04,15.08837185,0.0001618,53.2161,185.9875,58.2363,301.8786,0.00010448,1.375e-05,0.0,0 STARLINK-3359,1 51148U 22005AW  22274.03199330  .00001375  00000-0  10448-3 0  9999,2 51148  53.2161 185.9875 0001618  58.2363 301.8786 15.08837185 39039,6917.889,95.438,540.873,538.635,0.0
51148.0,STARLINK-3359,PAYLOAD,2022-10-01 21:26:04,15.08848826,0.0001751,53.216,182.1227,51.5815,308.5334,0.00024734,3.651e-05,0.0,0 STARLINK-3359,1 51148U 22005AW  22274.89310722  .00003651  00000-0  24734-3 0  9995,2 51148  53.2160 182.1227 0001751  51.5815 308.5334 15.08848826 39165,6917.853,95.437,540.93,538.507,0.0
51148.0,STARLINK-3359,PAYLOAD,2022-10-02 00:36:50,15.08847825,0.0001732,53.216,181.5278,51.8266,308.2882,0.00020151,2.921e-05,0.0,0 STARLINK-3359,1 51148U 22005AW  22275.02558715  .00002921  00000-0  20151-3 0  9995,2 51148  53.2160 181.5278 0001732  51.8266 308.2882 15.08847825 39181,6917.856,95.437,540.92,538.523,0.0
51148.0,STARLINK-3359,PAYLOAD,2022-10-02 18:06:06,15.08831166,0.0001814,53.2157,178.2569,52.7201,307.3956,-1.6959e-05,-5.58e-06,0.0,0 STARLINK-3359,1 51148U 22005AW  22275.75423772 -.00000558  00000-0 -16959-4 0  9997,2 51148  53.2157 178.2569 0001814  52.7201 307.3956 15.08831166 40403,6917.906999999997,95.438,541.0269999999998,538.5169999999998,0.0
51148.0,STARLINK-3359,PAYLOAD,2022-10-02 19:41:29,15.08832734,0.0001754999999999,53.2169,177.9596,53.9887,306.1268,2.5724e-05,1.21e-06,0.0,0 STARLINK-3359,1 51148U 22005AW  22275.82047875  .00000121  00000-0  25724-4 0  9995,2 51148  53.2169 177.9596 0001755  53.9887 306.1268 15.08832734 39301,6917.903,95.438,540.982,538.554,0.0
51148.0,STARLINK-3359,PAYLOAD,2022-10-03 09:59:56,15.08855051,0.0001778,53.2168,175.2825,52.0589,308.0563,0.00022404,3.281e-05,0.0,0 STARLINK-3359,1 51148U 22005AW  22276.41662318  .00003281  00000-0  22404-3 0  9997,2 51148  53.2168 175.2825 0001778  52.0589 308.0563 15.08855051 40500,6917.834,95.437,540.929,538.469,0.0
51148.0,STARLINK-3359,PAYLOAD,2022-10-03 19:32:15,15.08855861,0.0001683,53.2156,173.4988,54.6969,305.418,0.00036138,5.47e-05,0.0,0 STARLINK-3359,1 51148U 22005AW  22276.81406452  .00005470  00000-0  36138-3 0  9997,2 51148  53.2156 173.4988 0001683  54.6969 305.4180 15.08855861 39459,6917.831999999999,95.437,540.861,538.533,0.0
51148.0,STARLINK-3359,PAYLOAD,2022-10-03 22:43:01,15.08854345,0.0001612,53.2163,172.9036,53.7179,306.3962,0.00031326,4.703e-05,0.0,0 STARLINK-3359,1 51148U 22005AW  22276.94654413  .00004703  00000-0  31326-3 0  9995,2 51148  53.2163 172.9036 0001612  53.7179 306.3962 15.08854345 40580,6917.837,95.437,540.817,538.586,0.0
51148.0,STARLINK-3359,PAYLOAD,2022-10-04 09:50:43,15.08850536,0.0001607,53.2165,170.8235,54.7775,305.3368,0.00019466,2.812e-05,0.0,0 STARLINK-3359,1 51148U 22005AW  22277.41022266  .00002812  00000-0  19466-3 0  9993,2 51148  53.2165 170.8235 0001607  54.7775 305.3368 15.08850536 40652,6917.848000000001,95.437,540.825,538.601,0.0
51148.0,STARLINK-3359,PAYLOAD,2022-10-04 19:23:01,15.08850145,0.0001608,53.2166,169.0393,56.317,303.7975,0.00024479,3.611e-05,0.0,0 STARLINK-3359,1 51148U 22005AW  22277.80766140  .00003611  00000-0  24479-3 0  9990,2 51148  53.2166 169.0393 0001608  56.3170 303.7975 15.08850145 39601,6917.849,95.437,540.827,538.602,0.0
51148.0,STARLINK-3359,PAYLOAD,2022-10-05 00:09:12,15.08828294,0.0001595999999999,53.2164,168.1469,62.3301,297.7853,-6.6938e-05,-1.353e-05,0.0,0 STARLINK-3359,1 51148U 22005AW  22278.00639418 -.00001353  00000-0 -66938-4 0  9990,2 51148  53.2164 168.1469 0001596  62.3301 297.7853 15.08828294 40746,6917.916,95.438,540.885,538.677,0.0
51148.0,STARLINK-3359,PAYLOAD,2022-10-05 11:16:54,15.08836636,0.0001685,53.2161,166.0642,55.9268,304.1884,-6.759e-05,-1.364e-05,0.0,0 STARLINK-3359,1 51148U 22005AW  22278.47007795 -.00001364  00000-0 -67590-4 0  9995,2 51148  53.2161 166.0642 0001685  55.9268 304.1884 15.08836636 39702,6917.891,95.438,540.9209999999998,538.59,0.0
51148.0,STARLINK-3359,PAYLOAD,2022-10-05 20:49:13,15.08835476,0.000157,53.2169,164.2811,56.6037,303.5105,-0.00013198,-2.388e-05,0.0,0 STARLINK-3359,1 51148U 22005AW  22278.86752109 -.00002388  00000-0 -13198-3 0  9995,2 51148  53.2169 164.2811 0001570  56.6037 303.5105 15.08835476 39769,6917.894,95.438,540.845,538.673,0.0
51148.0,STARLINK-3359,PAYLOAD,2022-10-06 01:35:22,15.08841215,0.0001626,53.2165,163.3885,57.8668,302.2482,-3.4759e-06,-3.43e-06,0.0,0 STARLINK-3359,1 51148U 22005AW  22279.06623445 -.00000343  00000-0 -34759-5 0  9995,2 51148  53.2165 163.3885 0001626  57.8668 302.2482 15.08841215 40901,6917.877,95.437,540.867,538.617,0.0
51148.0,STARLINK-3359,PAYLOAD,2022-10-06 11:07:42,15.08826419,0.0001631,53.2164,161.6046,52.7303,307.3838,7.0664e-05,8.36e-06,0.0,0 STARLINK-3359,1 51148U 22005AW  22279.46368268  .00000836  00000-0  70664-4 0  9997,2 51148  53.2164 161.6046 0001631  52.7303 307.3838 15.08826419 39858,6917.922,95.438,540.915,538.659,0.0
51148.0,STARLINK-3359,PAYLOAD,2022-10-06 19:04:37,15.08837585,0.0001694,53.2162,160.1178,53.0943,307.0204,0.00015686,2.209e-05,0.0,0 STARLINK-3359,1 51148U 22005AW  22279.79487546  .00002209  00000-0  15686-3 0  9992,2 51148  53.2162 160.1178 0001694  53.0943 307.0204 15.08837585 39905,6917.888000000001,95.438,540.925,538.581,0.0
51148.0,STARLINK-3359,PAYLOAD,2022-10-06 23:50:47,15.08832935,0.0001595,53.2169,159.2255,50.7525,309.3609,0.0001205,1.63e-05,0.0,0 STARLINK-3359,1 51148U 22005AW  22279.99359967  .00001630  00000-0  12050-3 0  9998,2 51148  53.2169 159.2255 0001595  50.7525 309.3609 15.08832935 41043,6917.901999999999,95.438,540.87,538.664,0.0
51148.0,STARLINK-3359,PAYLOAD,2022-10-07 09:23:04,15.08846346,0.0001624,53.217,157.4417,49.6851,310.4283,0.00021675,3.164e-05,0.0,0 STARLINK-3359,1 51148U 22005AW  22280.39102970  .00003164  00000-0  21675-3 0  9991,2 51148  53.2170 157.4417 0001624  49.6851 310.4283 15.08846346 41106,6917.861,95.437,540.849,538.6030000000002,0.0
51148.0,STARLINK-3359,PAYLOAD,2022-10-07 20:30:47,15.08835268,0.0001358,53.2167,155.3585,62.2289,297.8841,0.00012314,1.672e-05,0.0,0 STARLINK-3359,1 51148U 22005AW  22280.85471897  .00001672  00000-0  12314-3 0  9991,2 51148  53.2167 155.3585 0001358  62.2289 297.8841 15.08835268 41171,6917.895,95.438,540.6990000000002,538.82,0.0
